STARLINK-32648          
1 62301U 24239A   26061.71667017  .00026607  00000+0  90712-3 0  9994
2 62301  53.1567 213.7182 0000732  92.4623 267.6461 15.30204564 68492
STARLINK-32594          
1 62302U 24239B   26061.77038068  .00024668  00000+0  84189-3 0  9995
2 62302  53.1587 223.8417 0001019  76.9290 283.1824 15.30212862 68355
STARLINK-32621          
1 62303U 24239C   26061.81247580  .00028223  00000+0  96122-3 0  9993
2 62303  53.1604 212.8913 0001029  76.1899 283.9216 15.30206573 68516
STARLINK-32597          
1 62304U 24239D   26061.83335647  .00062874  00000+0  21198-2 0  9998
2 62304  53.1571 213.0745 0001233  77.0230 258.5714 15.30158778  5898
STARLINK-32649          
1 62305U 24239E   26061.72977419  .00029170  00000+0  99265-3 0  9999
2 62305  53.1586 225.8737 0000877  68.3366 291.7728 15.30215330 68322
STARLINK-32633          
1 62306U 24239F   26061.75933098  .00064956  00000+0  21842-2 0  9994
2 62306  53.1570 226.0548 0001176  79.8256 280.2877 15.30229476 68321
STARLINK-32646          
1 62307U 24239G   26061.80825455  .00030181  00000+0  10266-2 0  9999
2 62307  53.1592 212.8655 0001007  74.4406 285.6706 15.30211640 68514
STARLINK-32706          
1 62308U 24239H   26061.72356036  .00016852  00000+0  57967-3 0  9994
2 62308  53.1583 226.5387 0001328  66.7156 293.3984 15.30207270 68317
STARLINK-32678          
1 62309U 24239J   26061.71245119  .00030662  00000+0  10429-2 0  9999
2 62309  53.1570 213.6901 0000801  86.1717 273.9375 15.30206349 68490
STARLINK-32696          
1 62310U 24239K   26061.72038926  .00033331  00000+0  11322-2 0  9997
2 62310  53.1587 226.5225 0000779  91.9752 268.1338 15.30206701 68317
STARLINK-32700          
1 62311U 24239L   26061.64398053  .00020367  00000+0  69787-3 0  9993
2 62311  53.1578 213.9750 0000871  80.4691 279.6408 15.30200398 68477
STARLINK-32698          
1 62312U 24239M   26061.72670788  .00008512  00000+0  29919-3 0  9992
2 62312  53.1589 226.5593 0000849  89.5266 270.5832 15.30199769 68311
STARLINK-32634          
1 62313U 24239N   26061.81141912  .00024766  00000+0  84514-3 0  9996
2 62313  53.1594 212.8845 0000971  66.3537 293.7566 15.30215033 68512
STARLINK-32651          
1 62314U 24239P   26061.69189251  .00050248  00000+0  16989-2 0  9995
2 62314  53.1578 226.3414 0001372  85.5450 274.5707 15.30166987 68315
STARLINK-32627          
1 62315U 24239Q   26061.72460370  .00018101  00000+0  62179-3 0  9999
2 62315  53.1585 226.4994 0001024  85.9497 274.1621 15.30198805 68312
STARLINK-32596          
1 62316U 24239R   26061.71722228  .00033063  00000+0  11230-2 0  9997
2 62316  53.1587 226.4984 0000863 114.4298 245.6793 15.30213852 68314
STARLINK-32519          
1 62317U 24239S   26061.73555214  .00016476  00000+0  56715-3 0  9996
2 62317  53.1587 213.1163 0001133  91.9637 268.1493 15.30200606 68505
