[{"OBJECT_NAME":"STARLINK-32648","OBJECT_ID":"2024-239A","EPOCH":"2026-03-02T17:12:00.302688","MEAN_MOTION":15.30204564,"ECCENTRICITY":7.32e-5,"INCLINATION":53.1567,"RA_OF_ASC_NODE":213.7182,"ARG_OF_PERICENTER":92.4623,"MEAN_ANOMALY":267.6461,"EPHEMERIS_TYPE":0,"CLASSIFICATION_TYPE":"U","NORAD_CAT_ID":62301,"ELEMENT_SET_NO":999,"REV_AT_EPOCH":6849,"BSTAR":0.00090712,"MEAN_MOTION_DOT":0.00026607,"MEAN_MOTION_DDOT":0},{"OBJECT_NAME":"STARLINK-32594","OBJECT_ID":"2024-239B","EPOCH":"2026-03-02T18:29:20.890752","MEAN_MOTION":15.30212862,"ECCENTRICITY":0.0001019,"INCLINATION":53.1587,"RA_OF_ASC_NODE":223.8417,"ARG_OF_PERICENTER":76.929,"MEAN_ANOMALY":283.1824,"EPHEMERIS_TYPE":0,"CLASSIFICATION_TYPE":"U","NORAD_CAT_ID":62302,"ELEMENT_SET_NO":999,"REV_AT_EPOCH":6835,"BSTAR":0.00084189,"MEAN_MOTION_DOT":0.00024668,"MEAN_MOTION_DDOT":0},{"OBJECT_NAME":"STARLINK-32621","OBJECT_ID":"2024-239C","EPOCH":"2026-03-02T19:29:57.909120","MEAN_MOTION":15.30206573,"ECCENTRICITY":0.0001029,"INCLINATION":53.1604,"RA_OF_ASC_NODE":212.8913,"ARG_OF_PERICENTER":76.1899,"MEAN_ANOMALY":283.9216,"EPHEMERIS_TYPE":0,"CLASSIFICATION_TYPE":"U","NORAD_CAT_ID":62303,"ELEMENT_SET_NO":999,"REV_AT_EPOCH":6851,"BSTAR":0.00096122,"MEAN_MOTION_DOT":0.00028223,"MEAN_MOTION_DDOT":0},{"OBJECT_NAME":"STARLINK-32597","OBJECT_ID":"2024-239D","EPOCH":"2026-03-02T20:00:01.999008","MEAN_MOTION":15.30158778,"ECCENTRICITY":0.0001233,"INCLINATION":53.1571,"RA_OF_ASC_NODE":213.0745,"ARG_OF_PERICENTER":77.023,"MEAN_ANOMALY":258.5714,"EPHEMERIS_TYPE":0,"CLASSIFICATION_TYPE":"U","NORAD_CAT_ID":62304,"ELEMENT_SET_NO":999,"REV_AT_EPOCH":589,"BSTAR":0.0021198,"MEAN_MOTION_DOT":0.00062874,"MEAN_MOTION_DDOT":0},{"OBJECT_NAME":"STARLINK-32649","OBJECT_ID":"2024-239E","EPOCH":"2026-03-02T17:30:52.490016","MEAN_MOTION":15.3021533,"ECCENTRICITY":8.77e-5,"INCLINATION":53.1586,"RA_OF_ASC_NODE":225.8737,"ARG_OF_PERICENTER":68.3366,"MEAN_ANOMALY":291.7728,"EPHEMERIS_TYPE":0,"CLASSIFICATION_TYPE":"U","NORAD_CAT_ID":62305,"ELEMENT_SET_NO":999,"REV_AT_EPOCH":6832,"BSTAR":0.00099265,"MEAN_MOTION_DOT":0.0002917,"MEAN_MOTION_DDOT":0},{"OBJECT_NAME":"STARLINK-32633","OBJECT_ID":"2024-239F","EPOCH":"2026-03-02T18:13:26.196672","MEAN_MOTION":15.30229476,"ECCENTRICITY":0.0001176,"INCLINATION":53.157,"RA_OF_ASC_NODE":226.0548,"ARG_OF_PERICENTER":79.8256,"MEAN_ANOMALY":280.2877,"EPHEMERIS_TYPE":0,"CLASSIFICATION_TYPE":"U","NORAD_CAT_ID":62306,"ELEMENT_SET_NO":999,"REV_AT_EPOCH":6832,"BSTAR":0.0021842,"MEAN_MOTION_DOT":0.00064956,"MEAN_MOTION_DDOT":0},{"OBJECT_NAME":"STARLINK-32646","OBJECT_ID":"2024-239G","EPOCH":"2026-03-02T19:23:53.193120","MEAN_MOTION":15.3021164,"ECCENTRICITY":0.0001007,"INCLINATION":53.1592,"RA_OF_ASC_NODE":212.8655,"ARG_OF_PERICENTER":74.4406,"MEAN_ANOMALY":285.6706,"EPHEMERIS_TYPE":0,"CLASSIFICATION_TYPE":"U","NORAD_CAT_ID":62307,"ELEMENT_SET_NO":999,"REV_AT_EPOCH":6851,"BSTAR":0.0010266,"MEAN_MOTION_DOT":0.00030181,"MEAN_MOTION_DDOT":0},{"OBJECT_NAME":"STARLINK-32706","OBJECT_ID":"2024-239H","EPOCH":"2026-03-02T17:21:55.615104","MEAN_MOTION":15.3020727,"ECCENTRICITY":0.0001328,"INCLINATION":53.1583,"RA_OF_ASC_NODE":226.5387,"ARG_OF_PERICENTER":66.7156,"MEAN_ANOMALY":293.3984,"EPHEMERIS_TYPE":0,"CLASSIFICATION_TYPE":"U","NORAD_CAT_ID":62308,"ELEMENT_SET_NO":999,"REV_AT_EPOCH":6831,"BSTAR":0.00057967,"MEAN_MOTION_DOT":0.00016852,"MEAN_MOTION_DDOT":0},{"OBJECT_NAME":"STARLINK-32678","OBJECT_ID":"2024-239J","EPOCH":"2026-03-02T17:05:55.782816","MEAN_MOTION":15.30206349,"ECCENTRICITY":8.01e-5,"INCLINATION":53.157,"RA_OF_ASC_NODE":213.6901,"ARG_OF_PERICENTER":86.1717,"MEAN_ANOMALY":273.9375,"EPHEMERIS_TYPE":0,"CLASSIFICATION_TYPE":"U","NORAD_CAT_ID":62309,"ELEMENT_SET_NO":999,"REV_AT_EPOCH":6849,"BSTAR":0.0010429,"MEAN_MOTION_DOT":0.00030662,"MEAN_MOTION_DDOT":0},{"OBJECT_NAME":"STARLINK-32696","OBJECT_ID":"2024-239K","EPOCH":"2026-03-02T17:17:21.632064","MEAN_MOTION":15.30206701,"ECCENTRICITY":7.79e-5,"INCLINATION":53.1587,"RA_OF_ASC_NODE":226.5225,"ARG_OF_PERICENTER":91.9752,"MEAN_ANOMALY":268.1338,"EPHEMERIS_TYPE":0,"CLASSIFICATION_TYPE":"U","NORAD_CAT_ID":62310,"ELEMENT_SET_NO":999,"REV_AT_EPOCH":6831,"BSTAR":0.0011322,"MEAN_MOTION_DOT":0.00033331,"MEAN_MOTION_DDOT":0},{"OBJECT_NAME":"STARLINK-32700","OBJECT_ID":"2024-239L","EPOCH":"2026-03-02T15:27:19.917792","MEAN_MOTION":15.30200398,"ECCENTRICITY":8.71e-5,"INCLINATION":53.1578,"RA_OF_ASC_NODE":213.975,"ARG_OF_PERICENTER":80.4691,"MEAN_ANOMALY":279.6408,"EPHEMERIS_TYPE":0,"CLASSIFICATION_TYPE":"U","NORAD_CAT_ID":62311,"ELEMENT_SET_NO":999,"REV_AT_EPOCH":6847,"BSTAR":0.00069787,"MEAN_MOTION_DOT":0.00020367,"MEAN_MOTION_DDOT":0},{"OBJECT_NAME":"STARLINK-32698","OBJECT_ID":"2024-239M","EPOCH":"2026-03-02T17:26:27.560832","MEAN_MOTION":15.30199769,"ECCENTRICITY":8.49e-5,"INCLINATION":53.1589,"RA_OF_ASC_NODE":226.5593,"ARG_OF_PERICENTER":89.5266,"MEAN_ANOMALY":270.5832,"EPHEMERIS_TYPE":0,"CLASSIFICATION_TYPE":"U","NORAD_CAT_ID":62312,"ELEMENT_SET_NO":999,"REV_AT_EPOCH":6831,"BSTAR":0.00029919,"MEAN_MOTION_DOT":8.512e-5,"MEAN_MOTION_DDOT":0},{"OBJECT_NAME":"STARLINK-32634","OBJECT_ID":"2024-239N","EPOCH":"2026-03-02T19:28:26.611968","MEAN_MOTION":15.30215033,"ECCENTRICITY":9.71e-5,"INCLINATION":53.1594,"RA_OF_ASC_NODE":212.8845,"ARG_OF_PERICENTER":66.3537,"MEAN_ANOMALY":293.7566,"EPHEMERIS_TYPE":0,"CLASSIFICATION_TYPE":"U","NORAD_CAT_ID":62313,"ELEMENT_SET_NO":999,"REV_AT_EPOCH":6851,"BSTAR":0.00084514,"MEAN_MOTION_DOT":0.00024766,"MEAN_MOTION_DDOT":0},{"OBJECT_NAME":"STARLINK-32651","OBJECT_ID":"2024-239P","EPOCH":"2026-03-02T16:36:19.512864","MEAN_MOTION":15.30166987,"ECCENTRICITY":0.0001372,"INCLINATION":53.1578,"RA_OF_ASC_NODE":226.3414,"ARG_OF_PERICENTER":85.545,"MEAN_ANOMALY":274.5707,"EPHEMERIS_TYPE":0,"CLASSIFICATION_TYPE":"U","NORAD_CAT_ID":62314,"ELEMENT_SET_NO":999,"REV_AT_EPOCH":6831,"BSTAR":0.0016989,"MEAN_MOTION_DOT":0.00050248,"MEAN_MOTION_DDOT":0},{"OBJECT_NAME":"STARLINK-32627","OBJECT_ID":"2024-239Q","EPOCH":"2026-03-02T17:23:25.759680","MEAN_MOTION":15.30198805,"ECCENTRICITY":0.0001024,"INCLINATION":53.1585,"RA_OF_ASC_NODE":226.4994,"ARG_OF_PERICENTER":85.9497,"MEAN_ANOMALY":274.1621,"EPHEMERIS_TYPE":0,"CLASSIFICATION_TYPE":"U","NORAD_CAT_ID":62315,"ELEMENT_SET_NO":999,"REV_AT_EPOCH":6831,"BSTAR":0.00062179,"MEAN_MOTION_DOT":0.00018101,"MEAN_MOTION_DDOT":0},{"OBJECT_NAME":"STARLINK-32596","OBJECT_ID":"2024-239R","EPOCH":"2026-03-02T17:12:48.004992","MEAN_MOTION":15.30213852,"ECCENTRICITY":8.63e-5,"INCLINATION":53.1587,"RA_OF_ASC_NODE":226.4984,"ARG_OF_PERICENTER":114.4298,"MEAN_ANOMALY":245.6793,"EPHEMERIS_TYPE":0,"CLASSIFICATION_TYPE":"U","NORAD_CAT_ID":62316,"ELEMENT_SET_NO":999,"REV_AT_EPOCH":6831,"BSTAR":0.001123,"MEAN_MOTION_DOT":0.00033063,"MEAN_MOTION_DDOT":0},{"OBJECT_NAME":"STARLINK-32519","OBJECT_ID":"2024-239S","EPOCH":"2026-03-02T17:39:11.704896","MEAN_MOTION":15.30200606,"ECCENTRICITY":0.0001133,"INCLINATION":53.1587,"RA_OF_ASC_NODE":213.1163,"ARG_OF_PERICENTER":91.9637,"MEAN_ANOMALY":268.1493,"EPHEMERIS_TYPE":0,"CLASSIFICATION_TYPE":"U","NORAD_CAT_ID":62317,"ELEMENT_SET_NO":999,"REV_AT_EPOCH":6850,"BSTAR":0.00056715,"MEAN_MOTION_DOT":0.00016476,"MEAN_MOTION_DDOT":0}]
